CCSDS_OMM_VERS = 2.0
CREATION_DATE  = 
ORIGINATOR     = 

OBJECT_NAME    = STARLINK-36207
OBJECT_ID      = 2025-293M
CENTER_NAME    = EARTH
REF_FRAME      = TEME
TIME_SYSTEM    = UTC
MEAN_ELEMENT_THEORY = SGP/SGP4

EPOCH          = 2026-01-01T04:00:01.998720
MEAN_MOTION    = 15.52537879
ECCENTRICITY   = .0003622
INCLINATION    = 69.9998
RA_OF_ASC_NODE = 268.2587
ARG_OF_PERICENTER = 268.0417
MEAN_ANOMALY   = 137.4500

EPHEMERIS_TYPE = 0
CLASSIFICATION_TYPE = U
NORAD_CAT_ID   = 67014
ELEMENT_SET_NO = 999
REV_AT_EPOCH   = 328
BSTAR          = -.919E-3
MEAN_MOTION_DOT = -.56348E-3
MEAN_MOTION_DDOT = 0

CCSDS_OMM_VERS = 2.0
CREATION_DATE  = 
ORIGINATOR     = 

OBJECT_NAME    = STARLINK-36093
OBJECT_ID      = 2025-293N
CENTER_NAME    = EARTH
REF_FRAME      = TEME
TIME_SYSTEM    = UTC
MEAN_ELEMENT_THEORY = SGP/SGP4

EPOCH          = 2026-01-01T04:00:01.998720
MEAN_MOTION    = 15.52538746
ECCENTRICITY   = .0003475
INCLINATION    = 69.9997
RA_OF_ASC_NODE = 268.2552
ARG_OF_PERICENTER = 266.7865
MEAN_ANOMALY   = 142.5377

EPHEMERIS_TYPE = 0
CLASSIFICATION_TYPE = U
NORAD_CAT_ID   = 67015
ELEMENT_SET_NO = 999
REV_AT_EPOCH   = 322
BSTAR          = -.8965E-3
MEAN_MOTION_DOT = -.54982E-3
MEAN_MOTION_DDOT = 0

CCSDS_OMM_VERS = 2.0
CREATION_DATE  = 
ORIGINATOR     = 

OBJECT_NAME    = STARLINK-36120
OBJECT_ID      = 2025-293P
CENTER_NAME    = EARTH
REF_FRAME      = TEME
TIME_SYSTEM    = UTC
MEAN_ELEMENT_THEORY = SGP/SGP4

EPOCH          = 2026-01-01T04:00:01.998720
MEAN_MOTION    = 15.52536647
ECCENTRICITY   = .0003507
INCLINATION    = 69.9997
RA_OF_ASC_NODE = 268.2576
ARG_OF_PERICENTER = 267.2942
MEAN_ANOMALY   = 140.1133

EPHEMERIS_TYPE = 0
CLASSIFICATION_TYPE = U
NORAD_CAT_ID   = 67016
ELEMENT_SET_NO = 999
REV_AT_EPOCH   = 322
BSTAR          = -.83675E-3
MEAN_MOTION_DOT = -.51348E-3
MEAN_MOTION_DDOT = 0

CCSDS_OMM_VERS = 2.0
CREATION_DATE  = 
ORIGINATOR     = 

OBJECT_NAME    = STARLINK-35498
OBJECT_ID      = 2025-293Q
CENTER_NAME    = EARTH
REF_FRAME      = TEME
TIME_SYSTEM    = UTC
MEAN_ELEMENT_THEORY = SGP/SGP4

EPOCH          = 2026-01-01T04:00:01.998720
MEAN_MOTION    = 15.52535407
ECCENTRICITY   = .0003472
INCLINATION    = 69.9998
RA_OF_ASC_NODE = 268.2531
ARG_OF_PERICENTER = 267.6724
MEAN_ANOMALY   = 143.5689

EPHEMERIS_TYPE = 0
CLASSIFICATION_TYPE = U
NORAD_CAT_ID   = 67017
ELEMENT_SET_NO = 999
REV_AT_EPOCH   = 341
BSTAR          = -.80657E-3
MEAN_MOTION_DOT = -.49511E-3
MEAN_MOTION_DDOT = 0

CCSDS_OMM_VERS = 2.0
CREATION_DATE  = 
ORIGINATOR     = 

OBJECT_NAME    = STARLINK-36106
OBJECT_ID      = 2025-293R
CENTER_NAME    = EARTH
REF_FRAME      = TEME
TIME_SYSTEM    = UTC
MEAN_ELEMENT_THEORY = SGP/SGP4

EPOCH          = 2026-01-01T04:00:01.998720
MEAN_MOTION    = 15.52535559
ECCENTRICITY   = .0003386
INCLINATION    = 69.9998
RA_OF_ASC_NODE = 268.2507
ARG_OF_PERICENTER = 270.9582
MEAN_ANOMALY   = 142.2029

EPHEMERIS_TYPE = 0
CLASSIFICATION_TYPE = U
NORAD_CAT_ID   = 67018
ELEMENT_SET_NO = 999
REV_AT_EPOCH   = 333
BSTAR          = -.86869E-3
MEAN_MOTION_DOT = -.53286E-3
MEAN_MOTION_DDOT = 0

CCSDS_OMM_VERS = 2.0
CREATION_DATE  = 
ORIGINATOR     = 

OBJECT_NAME    = STARLINK-35688
OBJECT_ID      = 2025-293S
CENTER_NAME    = EARTH
REF_FRAME      = TEME
TIME_SYSTEM    = UTC
MEAN_ELEMENT_THEORY = SGP/SGP4

EPOCH          = 2026-01-01T04:00:01.998720
MEAN_MOTION    = 15.52538432
ECCENTRICITY   = .0003411
INCLINATION    = 69.9999
RA_OF_ASC_NODE = 268.2485
ARG_OF_PERICENTER = 268.6938
MEAN_ANOMALY   = 146.3810

EPHEMERIS_TYPE = 0
CLASSIFICATION_TYPE = U
NORAD_CAT_ID   = 67019
ELEMENT_SET_NO = 999
REV_AT_EPOCH   = 341
BSTAR          = -.89899E-3
MEAN_MOTION_DOT = -.55132E-3
MEAN_MOTION_DDOT = 0

CCSDS_OMM_VERS = 2.0
CREATION_DATE  = 
ORIGINATOR     = 

OBJECT_NAME    = STARLINK-36172
OBJECT_ID      = 2025-293T
CENTER_NAME    = EARTH
REF_FRAME      = TEME
TIME_SYSTEM    = UTC
MEAN_ELEMENT_THEORY = SGP/SGP4

EPOCH          = 2026-01-01T04:00:01.998720
MEAN_MOTION    = 15.52531399
ECCENTRICITY   = .0003348
INCLINATION    = 69.9999
RA_OF_ASC_NODE = 268.2460
ARG_OF_PERICENTER = 270.2747
MEAN_ANOMALY   = 146.7203

EPHEMERIS_TYPE = 0
CLASSIFICATION_TYPE = U
NORAD_CAT_ID   = 67020
ELEMENT_SET_NO = 999
REV_AT_EPOCH   = 333
BSTAR          = -.75663E-3
MEAN_MOTION_DOT = -.46466E-3
MEAN_MOTION_DDOT = 0

CCSDS_OMM_VERS = 2.0
CREATION_DATE  = 
ORIGINATOR     = 

OBJECT_NAME    = STARLINK-36184
OBJECT_ID      = 2025-293U
CENTER_NAME    = EARTH
REF_FRAME      = TEME
TIME_SYSTEM    = UTC
MEAN_ELEMENT_THEORY = SGP/SGP4

EPOCH          = 2026-01-01T04:00:01.998720
MEAN_MOTION    = 15.52524417
ECCENTRICITY   = .0003161
INCLINATION    = 69.9996
RA_OF_ASC_NODE = 268.2422
ARG_OF_PERICENTER = 275.2595
MEAN_ANOMALY   = 143.6460

EPHEMERIS_TYPE = 0
CLASSIFICATION_TYPE = U
NORAD_CAT_ID   = 67021
ELEMENT_SET_NO = 999
REV_AT_EPOCH   = 333
BSTAR          = -.43358E-3
MEAN_MOTION_DOT = -.26757E-3
MEAN_MOTION_DDOT = 0

CCSDS_OMM_VERS = 2.0
CREATION_DATE  = 
ORIGINATOR     = 

OBJECT_NAME    = STARLINK-36209
OBJECT_ID      = 2025-293V
CENTER_NAME    = EARTH
REF_FRAME      = TEME
TIME_SYSTEM    = UTC
MEAN_ELEMENT_THEORY = SGP/SGP4

EPOCH          = 2026-01-01T04:00:01.998720
MEAN_MOTION    = 15.52526066
ECCENTRICITY   = .0003298
INCLINATION    = 69.9999
RA_OF_ASC_NODE = 268.2410
ARG_OF_PERICENTER = 278.2804
MEAN_ANOMALY   = 142.5424

EPHEMERIS_TYPE = 0
CLASSIFICATION_TYPE = U
NORAD_CAT_ID   = 67022
ELEMENT_SET_NO = 999
REV_AT_EPOCH   = 333
BSTAR          = -.49423E-3
MEAN_MOTION_DOT = -.30465E-3
MEAN_MOTION_DDOT = 0

CCSDS_OMM_VERS = 2.0
CREATION_DATE  = 
ORIGINATOR     = 

OBJECT_NAME    = STARLINK-36191
OBJECT_ID      = 2025-293W
CENTER_NAME    = EARTH
REF_FRAME      = TEME
TIME_SYSTEM    = UTC
MEAN_ELEMENT_THEORY = SGP/SGP4

EPOCH          = 2026-01-01T04:00:01.998720
MEAN_MOTION    = 15.52528569
ECCENTRICITY   = .0003197
INCLINATION    = 69.9997
RA_OF_ASC_NODE = 268.2390
ARG_OF_PERICENTER = 275.2824
MEAN_ANOMALY   = 147.4566

EPHEMERIS_TYPE = 0
CLASSIFICATION_TYPE = U
NORAD_CAT_ID   = 67023
ELEMENT_SET_NO = 999
REV_AT_EPOCH   = 322
BSTAR          = -.61059E-3
MEAN_MOTION_DOT = -.37567E-3
MEAN_MOTION_DDOT = 0

CCSDS_OMM_VERS = 2.0
CREATION_DATE  = 
ORIGINATOR     = 

OBJECT_NAME    = STARLINK-36192
OBJECT_ID      = 2025-293X
CENTER_NAME    = EARTH
REF_FRAME      = TEME
TIME_SYSTEM    = UTC
MEAN_ELEMENT_THEORY = SGP/SGP4

EPOCH          = 2025-12-31T22:00:01.999584
MEAN_MOTION    = 15.53083095
ECCENTRICITY   = .00034536
INCLINATION    = 69.9998
RA_OF_ASC_NODE = 268.9211
ARG_OF_PERICENTER = 272.8250
MEAN_ANOMALY   = 194.6956

EPHEMERIS_TYPE = 0
CLASSIFICATION_TYPE = U
NORAD_CAT_ID   = 67024
ELEMENT_SET_NO = 999
REV_AT_EPOCH   = 329
BSTAR          = -.14490443E-1
MEAN_MOTION_DOT = -.833228E-2
MEAN_MOTION_DDOT = 0

CCSDS_OMM_VERS = 2.0
CREATION_DATE  = 
ORIGINATOR     = 

OBJECT_NAME    = STARLINK-36178
OBJECT_ID      = 2025-293Y
CENTER_NAME    = EARTH
REF_FRAME      = TEME
TIME_SYSTEM    = UTC
MEAN_ELEMENT_THEORY = SGP/SGP4

EPOCH          = 2026-01-01T04:00:01.998720
MEAN_MOTION    = 15.52537697
ECCENTRICITY   = .0003003
INCLINATION    = 69.9997
RA_OF_ASC_NODE = 268.2337
ARG_OF_PERICENTER = 275.4297
MEAN_ANOMALY   = 151.1374

EPHEMERIS_TYPE = 0
CLASSIFICATION_TYPE = U
NORAD_CAT_ID   = 67025
ELEMENT_SET_NO = 999
REV_AT_EPOCH   = 333
BSTAR          = -.77967E-3
MEAN_MOTION_DOT = -.47876E-3
MEAN_MOTION_DDOT = 0

