STARLINK-36207          
1 67014U 25293M   26001.16668980 -.00056348  00000+0 -91900-3 0  9991
2 67014  69.9998 268.2587 0003622 268.0417 137.4500 15.52537879  3284
STARLINK-36093          
1 67015U 25293N   26001.16668980 -.00054982  00000+0 -89650-3 0  9993
2 67015  69.9997 268.2552 0003475 266.7865 142.5377 15.52538746  3221
STARLINK-36120          
1 67016U 25293P   26001.16668980 -.00051348  00000+0 -83675-3 0  9998
2 67016  69.9997 268.2576 0003507 267.2942 140.1133 15.52536647  3228
STARLINK-35498          
1 67017U 25293Q   26001.16668980 -.00049511  00000+0 -80657-3 0  9995
2 67017  69.9998 268.2531 0003472 267.6724 143.5689 15.52535407  3411
STARLINK-36106          
1 67018U 25293R   26001.16668980 -.00053286  00000+0 -86869-3 0  9991
2 67018  69.9998 268.2507 0003386 270.9582 142.2029 15.52535559  3331
STARLINK-35688          
1 67019U 25293S   26001.16668980 -.00055132  00000+0 -89899-3 0  9990
2 67019  69.9999 268.2485 0003411 268.6938 146.3810 15.52538432  3411
STARLINK-36172          
1 67020U 25293T   26001.16668980 -.00046466  00000+0 -75663-3 0  9996
2 67020  69.9999 268.2460 0003348 270.2747 146.7203 15.52531399  3338
STARLINK-36184          
1 67021U 25293U   26001.16668980 -.00026757  00000+0 -43358-3 0  9994
2 67021  69.9996 268.2422 0003161 275.2595 143.6460 15.52524417  3337
STARLINK-36209          
1 67022U 25293V   26001.16668980 -.00030465  00000+0 -49423-3 0  9995
2 67022  69.9999 268.2410 0003298 278.2804 142.5424 15.52526066  3335
STARLINK-36191          
1 67023U 25293W   26001.16668980 -.00037567  00000+0 -61059-3 0  9995
2 67023  69.9997 268.2390 0003197 275.2824 147.4566 15.52528569  3227
STARLINK-36192          
1 67024U 25293X   25365.91668981 -.00833228  00000+0 -14490-1 0  9995
2 67024  69.9998 268.9211 0003453 272.8250 194.6956 15.53083095  3294
STARLINK-36178          
1 67025U 25293Y   26001.16668980 -.00047876  00000+0 -77967-3 0  9996
2 67025  69.9997 268.2337 0003003 275.4297 151.1374 15.52537697  3335
